station,time,metar
WARR,2026-05-25 11:43:30,WARR 251130Z 01003KT 9999 FEW020 29/26 Q1011 NOSIG
