station,time,metar
WARR,2026-05-07 14:03:43,WARR 071330Z 10005KT 8000 FEW020 28/26 Q1009 NOSIG
