station,time,metar
WARR,2026-04-20 02:33:00,WARR 200200Z VRB02KT 7000 FEW020 31/26 Q1011 NOSIG
