station,time,metar
WARR,2026-05-09 10:35:38,WARR 091030Z 07007KT 9999 FEW020 30/26 Q1007 NOSIG
