station,time,metar
WARR,2026-04-27 15:07:41,WARR 271500Z 10003KT 8000 FEW020 27/26 Q1009 NOSIG
