timestamp,metar_raw,station,runway,runway_heading,wind_dir,wind_speed,wind_gust,headwind,crosswind,tailwind,crosswind_status,tailwind_status
2026-04-14T05:16:33.200296,WARR 140500Z 10012KT 9999 FEW020 32/27 Q1009 NOSIG,WARR,10,100,100,12,,12.0,0.0,0.0,SAFE,SAFE
2026-04-14T05:16:33.200296,WARR 140500Z 10012KT 9999 FEW020 32/27 Q1009 NOSIG,WARR,28,280,100,12,,0.0,0.0,12.0,SAFE,DANGER
2026-04-26T02:06:57.816287,WARR 260200Z 10005KT 9999 FEW020 31/27 Q1010 NOSIG,WARR,10,100,100,5,,5.0,0.0,0.0,SAFE,SAFE
2026-04-26T02:06:57.816287,WARR 260200Z 10005KT 9999 FEW020 31/27 Q1010 NOSIG,WARR,28,280,100,5,,0.0,0.0,5.0,SAFE,CAUTION
2026-04-27T15:07:41.309290,WARR 271500Z 10003KT 8000 FEW020 27/26 Q1009 NOSIG,WARR,10,100,100,3,,3.0,0.0,0.0,SAFE,SAFE
2026-04-27T15:07:41.309290,WARR 271500Z 10003KT 8000 FEW020 27/26 Q1009 NOSIG,WARR,28,280,100,3,,0.0,0.0,3.0,SAFE,SAFE
